NORAD_CAT_ID,OBJECT_NAME,OBJECT_TYPE,EPOCH,MEAN_MOTION,ECCENTRICITY,INCLINATION,RA_OF_ASC_NODE,ARG_OF_PERICENTER,MEAN_ANOMALY,BSTAR,MEAN_MOTION_DOT,MEAN_MOTION_DDOT,TLE_LINE0,TLE_LINE1,TLE_LINE2,SEMIMAJOR_AXIS,PERIOD,APOGEE,PERIGEE,DECAYED
53153.0,STARLINK-4098,PAYLOAD,2024-02-26 21:47:50,15.08833674,0.0001411,53.2153,254.1057,80.8351,279.28,8.5465e-05,1.072e-05,0.0,0 STARLINK-4098,1 53153U 22083X   24057.90822728  .00001072  00000-0  85465-4 0  9990,2 53153  53.2153 254.1057 0001411  80.8351 279.2800 15.08833674 89374,6917.9,95.438,540.741,538.789,0.0
53153.0,STARLINK-4098,PAYLOAD,2024-02-27 20:03:14,15.08835863,0.0001497,53.2154,249.946,93.5631,266.5532,1.6203e-05,-3e-07,0.0,0 STARLINK-4098,1 53153U 22083X   24058.83558961 -.00000030  00000-0  16203-4 0  9996,2 53153  53.2154 249.9460 0001497  93.5631 266.5532 15.08835863 90141,6917.893,95.438,540.794,538.722,0.0
53153.0,STARLINK-4098,PAYLOAD,2024-02-27 21:38:37,15.0883869,0.0001503,53.2155,249.6472,94.0346,266.0818,5.8135e-05,6.37e-06,0.0,0 STARLINK-4098,1 53153U 22083X   24058.90182840  .00000637  00000-0  58135-4 0  9995,2 53153  53.2155 249.6472 0001503  94.0346 266.0818 15.08838690 89522,6917.884,95.438,540.789,538.71,0.0
53153.0,STARLINK-4098,PAYLOAD,2024-02-28 21:29:25,15.08833378,0.0001517,53.2161,245.1786,85.1811,274.9354,0.00030987,4.646e-05,0.0,0 STARLINK-4098,1 53153U 22083X   24059.89543475  .00004646  00000-0  30987-3 0  9997,2 53153  53.2161 245.1786 0001517  85.1811 274.9354 15.08833378 89678,6917.901,95.438,540.815,538.716,0.0
53153.0,STARLINK-4098,PAYLOAD,2024-02-29 11:47:53,15.08840347,0.0001387,53.2156,242.5092,82.5095,277.6055,0.00010525,1.388e-05,0.0,0 STARLINK-4098,1 53153U 22083X   24060.49159265  .00001388  00000-0  10525-3 0  9991,2 53153  53.2156 242.5092 0001387  82.5095 277.6055 15.08840347 89765,6917.879,95.438,540.704,538.785,0.0
53153.0,STARLINK-4098,PAYLOAD,2024-02-29 19:44:49,15.08835428,0.0001309,53.2163,241.0205,88.1456,271.9686,4.7521e-05,4.68e-06,0.0,0 STARLINK-4098,1 53153U 22083X   24060.82279888  .00000468  00000-0  47521-4 0  9997,2 53153  53.2163 241.0205 0001309  88.1456 271.9686 15.08835428 89817,6917.894,95.438,540.665,538.854,0.0
53153.0,STARLINK-4098,PAYLOAD,2024-03-01 18:00:12,15.08847898,0.0001331,53.2163,236.8565,91.7814,268.3331,0.00011555,1.552e-05,0.0,0 STARLINK-4098,1 53153U 22083X   24061.75014939  .00001552  00000-0  11555-3 0  9996,2 53153  53.2163 236.8565 0001331  91.7814 268.3331 15.08847898 90588,6917.856,95.437,540.642,538.8,0.0
53153.0,STARLINK-4098,PAYLOAD,2024-03-02 14:40:13,15.08845149,0.000131,53.2164,232.9905,91.8072,268.307,0.00016278,2.304e-05,0.0,0 STARLINK-4098,1 53153U 22083X   24062.61126896  .00002304  00000-0  16278-3 0  9991,2 53153  53.2164 232.9905 0001310  91.8072 268.3070 15.08845149 90080,6917.865,95.437,540.636,538.823,0.0
53153.0,STARLINK-4098,PAYLOAD,2024-03-02 17:50:59,15.08847435,0.00013,53.2164,232.3949,94.7981,265.316,0.00018139,2.601e-05,0.0,0 STARLINK-4098,1 53153U 22083X   24062.74374707  .00002601  00000-0  18139-3 0  9999,2 53153  53.2164 232.3949 0001300  94.7981 265.3160 15.08847435 90102,6917.858,95.437,540.622,538.823,0.0
53153.0,STARLINK-4098,PAYLOAD,2024-03-03 14:31:00,15.08842938,0.0001482,53.2168,228.5285,100.6556,259.4603,3.5195e-05,2.72e-06,0.0,0 STARLINK-4098,1 53153U 22083X   24063.60487135  .00000272  00000-0  35195-4 0  9999,2 53153  53.2168 228.5285 0001482 100.6556 259.4603 15.08842938 90235,6917.871,95.437,540.762,538.711,0.0
53153.0,STARLINK-4098,PAYLOAD,2024-03-03 16:06:23,15.08843008,0.0001488,53.217,228.2312,100.577,259.5389,2.8577e-05,1.67e-06,0.0,0 STARLINK-4098,1 53153U 22083X   24063.67111096  .00000167  00000-0  28577-4 0  9995,2 53153  53.2170 228.2312 0001488 100.5770 259.5389 15.08843008 90870,6917.871,95.437,540.766,538.707,0.0
53153.0,STARLINK-4098,PAYLOAD,2024-03-04 14:21:46,15.08851787,0.0001315,53.2161,224.0708,89.2369,270.8773,9.6915e-05,1.255e-05,0.0,0 STARLINK-4098,1 53153U 22083X   24064.59846043  .00001255  00000-0  96915-4 0  9994,2 53153  53.2161 224.0708 0001315  89.2369 270.8773 15.08851787 90381,6917.844,95.437,540.619,538.8,0.0
53153.0,STARLINK-4098,PAYLOAD,2024-03-04 17:32:32,15.08871574,0.0001326,53.2158,223.4745,87.5191,272.5953,0.00046415,7.113e-05,0.0,0 STARLINK-4098,1 53153U 22083X   24064.73093165  .00007113  00000-0  46415-3 0  9997,2 53153  53.2158 223.4745 0001326  87.5191 272.5953 15.08871574 91035,6917.784,95.436,540.566,538.732,0.0
53153.0,STARLINK-4098,PAYLOAD,2024-03-05 14:12:34,15.08835006,0.0001245,53.2158,219.6103,91.8887,268.2248,-9.9495e-05,-1.871e-05,0.0,0 STARLINK-4098,1 53153U 22083X   24065.59206746 -.00001871  00000-0 -99495-4 0  9997,2 53153  53.2158 219.6103 0001245  91.8887 268.2248 15.08835006 90533,6917.896,95.438,540.622,538.899,0.0
53153.0,STARLINK-4098,PAYLOAD,2024-03-05 17:23:20,15.0883547,0.0001272,53.216,219.0164,93.9295,266.1842,-8.6134e-05,-1.658e-05,0.0,0 STARLINK-4098,1 53153U 22083X   24065.72454747 -.00001658  00000-0 -86134-4 0  9997,2 53153  53.2160 219.0164 0001272  93.9295 266.1842 15.08835470 91187,6917.894,95.438,540.639,538.879,0.0
53153.0,STARLINK-4098,PAYLOAD,2024-03-06 14:03:21,15.08839504,0.0001413,53.2168,215.1512,101.5174,258.5976,-0.00024188,-4.135e-05,0.0,0 STARLINK-4098,1 53153U 22083X   24066.58566782 -.00004135  00000-0 -24188-3 0  9998,2 53153  53.2168 215.1512 0001413 101.5174 258.5976 15.08839504 90687,6917.882,95.438,540.724,538.769,0.0
53153.0,STARLINK-4098,PAYLOAD,2024-03-07 02:46:27,15.0883797,0.0001161,53.2153,212.7707,85.9993,274.1132,-8.5567e-05,-1.649e-05,0.0,0 STARLINK-4098,1 53153U 22083X   24067.11559064 -.00001649  00000-0 -85567-4 0  9999,2 53153  53.2153 212.7707 0001161  85.9993 274.1132 15.08837970 91396,6917.887,95.438,540.555,538.948,0.0
53153.0,STARLINK-4098,PAYLOAD,2024-03-07 13:54:10,15.08820298,0.0001169,53.2152,210.6892,93.1673,266.9453,0.00036538,5.529e-05,0.0,0 STARLINK-4098,1 53153U 22083X   24067.57928596  .00005529  00000-0  36538-3 0  9991,2 53153  53.2152 210.6892 0001169  93.1673 266.9453 15.08820298 90839,6917.941,95.439,540.614,538.997,0.0
53153.0,STARLINK-4098,PAYLOAD,2024-03-08 08:58:47,15.08842352,0.0001387,53.216,207.1185,91.6378,268.4772,0.00018685,2.687e-05,0.0,0 STARLINK-4098,1 53153U 22083X   24068.37415762  .00002687  00000-0  18685-3 0  9991,2 53153  53.2160 207.1185 0001387  91.6378 268.4772 15.08842352 91580,6917.873,95.437,540.698,538.779,0.0
53153.0,STARLINK-4098,PAYLOAD,2024-03-08 15:20:19,15.08847254,0.000121,53.2152,205.9312,89.4408,270.6723,0.00025485,3.771e-05,0.0,0 STARLINK-4098,1 53153U 22083X   24068.63911392  .00003771  00000-0  25485-3 0  9991,2 53153  53.2152 205.9312 0001210  89.4408 270.6723 15.08847254 90994,6917.858,95.437,540.56,538.886,0.0
53153.0,STARLINK-4098,PAYLOAD,2024-03-09 02:28:00,15.08852993,4.22e-05,53.2168,203.8467,88.3965,271.7075,0.00030353,4.548e-05,0.0,0 STARLINK-4098,1 53153U 22083X   24069.10278879  .00004548  00000-0  30353-3 0  9993,2 53153  53.2168 203.8467 0000422  88.3965 271.7075 15.08852993 91066,6917.841,95.437,539.998,539.414,0.0
53153.0,STARLINK-4098,PAYLOAD,2024-03-10 02:18:48,15.08839968,0.0001408,53.2161,199.3868,89.0058,271.1095,6.1391e-05,6.89e-06,0.0,0 STARLINK-4098,1 53153U 22083X   24070.09639879  .00000689  00000-0  61391-4 0  9993,2 53153  53.2161 199.3868 0001408  89.0058 271.1095 15.08839968 91848,6917.88,95.438,540.72,538.771,0.0
53153.0,STARLINK-4098,PAYLOAD,2024-03-10 15:01:53,15.08840378,8.08e-05,53.2146,197.0064,82.5316,277.5768,-1.0747e-05,-4.59e-06,0.0,0 STARLINK-4098,1 53153U 22083X   24070.62631586 -.00000459  00000-0 -10747-4 0  9995,2 53153  53.2146 197.0064 0000808  82.5316 277.5768 15.08840378 91295,6917.879,95.438,540.303,539.185,0.0
53153.0,STARLINK-4098,PAYLOAD,2024-03-11 11:41:55,15.08841128,0.0001946,53.2165,193.1424,83.5996,276.5217,0.00015823,2.231e-05,0.0,0 STARLINK-4098,1 53153U 22083X   24071.48744304  .00002231  00000-0  15823-3 0  9990,2 53153  53.2165 193.1424 0001946  83.5996 276.5217 15.08841128 92059,6917.877,95.437,541.088,538.396,0.0
53153.0,STARLINK-4098,PAYLOAD,2024-03-11 14:52:41,15.08845351,0.000147,53.2174,192.5498,76.0711,284.0445,0.00023132,3.396e-05,0.0,0 STARLINK-4098,1 53153U 22083X   24071.61991983  .00003396  00000-0  23132-3 0  9997,2 53153  53.2174 192.5498 0001470  76.0711 284.0445 15.08845351 91448,6917.864,95.437,540.746,538.712,0.0
53153.0,STARLINK-4098,PAYLOAD,2024-03-12 11:32:40,15.08861662,0.000162,53.2155,188.6839,78.7304,281.387,0.00018331,2.632e-05,0.0,0 STARLINK-4098,1 53153U 22083X   24072.48102621  .00002632  00000-0  18331-3 0  9993,2 53153  53.2155 188.6839 0001620  78.7304 281.3870 15.08861662 92206,6917.814,95.436,540.8,538.558,0.0
53153.0,STARLINK-4098,PAYLOAD,2024-03-12 14:43:26,15.08862189,0.0001361,53.2156,188.0905,81.5018,278.6129,0.00040757,6.208e-05,0.0,0 STARLINK-4098,1 53153U 22083X   24072.61350649  .00006208  00000-0  40757-3 0  9993,2 53153  53.2156 188.0905 0001361  81.5018 278.6129 15.08862189 91593,6917.813,95.436,540.619,538.736,0.0
53153.0,STARLINK-4098,PAYLOAD,2024-03-13 00:15:45,15.08853081,0.0001146,53.2152,186.3044,72.1092,288.0025,0.00010093,1.319e-05,0.0,0 STARLINK-4098,1 53153U 22083X   24073.01094552  .00001319  00000-0  10093-3 0  9994,2 53153  53.2152 186.3044 0001146  72.1092 288.0025 15.08853081 92281,6917.84,95.437,540.498,538.913,0.0
53153.0,STARLINK-4098,PAYLOAD,2024-03-13 11:23:28,15.08825946,0.000159,53.2157,184.2239,85.072,275.0454,-0.00042424,-7.031e-05,0.0,0 STARLINK-4098,1 53153U 22083X   24073.47463770 -.00007031  00000-0 -42424-3 0  9998,2 53153  53.2157 184.2239 0001590  85.0720 275.0454 15.08825946 92352,6917.923,95.438,540.888,538.688,0.0
53153.0,STARLINK-4098,PAYLOAD,2024-03-13 14:34:14,15.08830315,0.0001666,53.2171,183.6318,92.5611,267.5572,-0.00029488,-4.977e-05,0.0,0 STARLINK-4098,1 53153U 22083X   24073.60711776 -.00004977  00000-0 -29488-3 0  9996,2 53153  53.2171 183.6318 0001666  92.5611 267.5572 15.08830315 91740,6917.91,95.438,540.928,538.622,0.0
